      2.10          N: GNSS NAV DATA                        RINEX VERSION / TYPE
fic2rin                                 08/31/2023 00:17:55 PGM / RUN BY / DATE
                                                            END OF HEADER
10 23  8 30 22  0  0.0 -.514155253768D-04 -.159161572810D-11  .000000000000D+00
     .105000000000D+03 -.165625000000D+01  .459269130403D-08 -.954711888268D+00
     .987201929092D-07  .873903138563D-02  .527128577232D-06  .515368222618D+04
     .338400000000D+06  .191852450371D-06  .166826360956D+01  .167638063431D-06
     .979713977477D+00  .375687500000D+03 -.244378310117D+01 -.852142638018D-08
     .108218793461D-09  .100000000000D+01  .227700000000D+04  .000000000000D+00
     .240000000000D+01  .000000000000D+00  .232830643654D-08  .105000000000D+03
     .331200000000D+06  .400000000000D+01
9  23  8 30 22  0  0.0 -.728252343833D-04  .100044417195D-10  .000000000000D+00
     .770000000000D+02 -.122687500000D+03  .462769276198D-08 -.244485552984D+01
    -.626593828201D-05  .268226105254D-02  .102128833532D-04  .515355893517D+04
     .338400000000D+06 -.167638063431D-07  .269420424764D+01  .521540641785D-07
     .957022878976D+00  .180250000000D+03  .194377946405D+01 -.807426489697D-08
    -.200722646618D-09  .100000000000D+01  .227700000000D+04  .000000000000D+00
     .240000000000D+01  .000000000000D+00  .931322574615D-09  .770000000000D+02
     .331200000000D+06  .400000000000D+01
6  23  8 30 22  0  0.0  .558469910175D-03 -.602540239925D-11  .000000000000D+00
     .650000000000D+02  .148718750000D+03  .353836167268D-08  .134567863504D+01
     .778585672379D-05  .271535280626D-02  .961683690548D-05  .515373739433D+04
     .338400000000D+06  .156462192535D-06  .632542263993D+00  .204890966415D-07
     .989590860111D+00  .207812500000D+03 -.791660026241D+00 -.773710799589D-08
     .519664503255D-09  .100000000000D+01  .227700000000D+04  .000000000000D+00
     .240000000000D+01  .000000000000D+00  .372529029846D-08  .650000000000D+02
     .331200000000D+06  .400000000000D+01
11 23  8 30 22  0  0.0 -.345385633409D-03 -.178488335223D-10  .000000000000D+00
     .610000000000D+02  .155968750000D+03  .413481508879D-08  .272508128273D+01
     .821240246296D-05  .109468668234D-02  .903196632862D-05  .515359421730D+04
     .338400000000D+06  .186264514923D-07  .671681332281D+00 -.391155481339D-07
     .965849717049D+00  .204968750000D+03 -.280273820139D+01 -.808105089392D-08
     .540736809573D-09  .100000000000D+01  .227700000000D+04  .000000000000D+00
     .240000000000D+01  .000000000000D+00 -.838190317154D-08  .573000000000D+03
     .331200000000D+06  .400000000000D+01
29 23  8 30 22  0  0.0 -.608657021075D-03 -.568434188608D-12  .000000000000D+00
     .710000000000D+02 -.196875000000D+02  .388337604391D-08 -.305415863063D+01
    -.106915831566D-05  .260901218280D-02  .134669244289D-04  .515372385216D+04
     .338400000000D+06  .316649675369D-07 -.348493733534D+00 -.298023223877D-07
     .975434735823D+00  .129312500000D+03  .254582481027D+01 -.763638951485D-08
    -.754317134622D-09  .100000000000D+01  .227700000000D+04  .000000000000D+00
     .240000000000D+01  .000000000000D+00 -.977888703346D-08  .710000000000D+02
     .331200000000D+06  .400000000000D+01
31 23  8 30 22  0  0.0 -.222658738494D-03 -.568434188608D-12  .000000000000D+00
     .690000000000D+02  .385937500000D+02  .474948354934D-08 -.404299710466D+00
     .209547579288D-05  .104043580359D-01  .106450170279D-04  .515361819077D+04
     .338400000000D+06  .670552253723D-07 -.249719240721D+01  .987201929092D-07
     .954615455634D+00  .171812500000D+03  .574154540938D+00 -.819962726167D-08
     .545022702383D-09  .100000000000D+01  .227700000000D+04  .000000000000D+00
     .240000000000D+01  .000000000000D+00 -.130385160446D-07  .690000000000D+02
     .331200000000D+06  .400000000000D+01
32 23  8 30 22  0  0.0 -.549816992134D-03 -.648014975013D-11  .000000000000D+00
     .380000000000D+02 -.138406250000D+03  .444982821035D-08 -.234130362993D+01
    -.716745853424D-05  .696189503651D-02  .981613993645D-05  .515357497215D+04
     .338400000000D+06  .108033418655D-06  .270776735761D+01 -.689178705215D-07
     .960602965746D+00  .188218750000D+03 -.222058964262D+01 -.797640367780D-08
    -.192150860997D-09  .100000000000D+01  .227700000000D+04  .000000000000D+00
     .240000000000D+01  .000000000000D+00  .465661287308D-09  .380000000000D+02
     .331200000000D+06  .400000000000D+01
27 23  8 30 22  0  0.0 -.312295742333D-04 -.648014975013D-11  .000000000000D+00
     .720000000000D+02 -.363750000000D+02  .407445543171D-08 -.292367824465D+01
    -.183656811714D-05  .115836777259D-01  .120867043734D-04  .515367064857D+04
     .338400000000D+06 -.745058059692D-08 -.429135296190D+00 -.819563865662D-07
     .966362152383D+00  .147031250000D+03  .741164652597D+00 -.764031824992D-08
    -.592881838765D-09  .100000000000D+01  .227700000000D+04  .000000000000D+00
     .240000000000D+01  .000000000000D+00  .139698386192D-08  .720000000000D+02
     .331200000000D+06  .400000000000D+01
16 23  8 30 22  0  0.0 -.461112707853D-03  .522959453519D-11  .000000000000D+00
     .360000000000D+02 -.202187500000D+02  .498306470750D-08 -.201177577056D+01
    -.101327896118D-05  .133564177668D-01  .376813113689D-05  .515363936806D+04
     .338400000000D+06  .163912773132D-06 -.138403069583D+01 -.745058059692D-07
     .963742064640D+00  .307375000000D+03  .792827626510D+00 -.825712965688D-08
    -.126433837905D-09  .100000000000D+01  .227700000000D+04  .000000000000D+00
     .240000000000D+01  .000000000000D+00 -.102445483208D-07  .360000000000D+02
     .331200000000D+06  .400000000000D+01
30 23  8 30 22  0  0.0 -.492054037750D-03  .318323145621D-11  .000000000000D+00
     .550000000000D+02  .498437500000D+02  .521557439247D-08  .362482808670D+00
     .262819230556D-05  .659369863570D-02  .110119581223D-04  .515377639389D+04
     .338400000000D+06 -.130385160446D-07 -.251291942463D+01  .949949026108D-07
     .935696737171D+00  .151187500000D+03 -.254597545718D+01 -.844356599413D-08
     .585024368613D-09  .100000000000D+01  .227700000000D+04  .000000000000D+00
     .240000000000D+01  .000000000000D+00  .372529029846D-08  .550000000000D+02
     .331200000000D+06  .400000000000D+01
17 23  8 30 22  0  0.0  .723333097994D-03  .341060513165D-12  .000000000000D+00
     .280000000000D+02 -.937500000000D+01  .385337479424D-08 -.299672608775D+01
    -.352039933205D-06  .136925730621D-01  .126548111439D-04  .515357260513D+04
     .338400000000D+06  .175088644028D-06 -.362803061918D+00  .540167093277D-07
     .973125635206D+00  .141687500000D+03 -.140300001955D+01 -.738209320810D-08
    -.632883504995D-09  .100000000000D+01  .227700000000D+04  .000000000000D+00
     .240000000000D+01  .000000000000D+00 -.111758708954D-07  .280000000000D+02
     .331200000000D+06  .400000000000D+01
15 23  8 30 22  0  0.0  .728084705770D-04  .363797880709D-11  .000000000000D+00
     .670000000000D+02 -.174218750000D+03  .513414242907D-08  .229609916870D+01
    -.903755426407D-05  .153469591169D-01  .875629484653D-05  .515378047752D+04
     .338400000000D+06  .147148966789D-06  .257338984710D+01 -.255182385445D-06
     .933395586050D+00  .196375000000D+03  .123569769586D+01 -.826784438891D-08
    -.361443627006D-09  .100000000000D+01  .227700000000D+04  .000000000000D+00
     .240000000000D+01  .000000000000D+00 -.107102096081D-07  .670000000000D+02
     .331200000000D+06  .400000000000D+01
26 23  8 30 22  0  0.0  .230750534683D-03 -.170530256582D-11  .000000000000D+00
     .700000000000D+02  .550000000000D+01  .576738309180D-08 -.114394108937D+01
     .292435288429D-06  .811313034501D-02  .335276126862D-05  .515373144150D+04
     .338400000000D+06  .176951289177D-06 -.154318098313D+01 -.447034835815D-07
     .932644466854D+00  .300718750000D+03  .467012062207D+00 -.878322299935D-08
    -.382158775590D-10  .100000000000D+01  .227700000000D+04  .000000000000D+00
     .240000000000D+01  .000000000000D+00  .698491930962D-08  .700000000000D+02
     .331200000000D+06  .400000000000D+01
25 23  8 30 22  0  0.0  .465119257569D-03  .204636307899D-11  .000000000000D+00
     .470000000000D+02 -.375000000000D+00  .553165898723D-08 -.427398110230D+00
     .186264514923D-07  .111236152006D-01  .372529029846D-05  .515367416763D+04
     .338400000000D+06 -.782310962677D-07 -.148568364761D+01  .128522515297D-06
     .951858264672D+00  .300656250000D+03  .105253070878D+01 -.884036823682D-08
    -.165006873199D-09  .100000000000D+01  .227700000000D+04  .000000000000D+00
     .240000000000D+01  .000000000000D+00  .558793544769D-08  .470000000000D+02
     .331200000000D+06  .400000000000D+01
13 23  8 30 22  0  0.0  .566609203815D-03  .454747350886D-11  .000000000000D+00
     .680000000000D+02 -.136531250000D+03  .410159941951D-08  .293355417639D+01
    -.707246363163D-05  .742034742143D-02  .130310654640D-04  .515368062210D+04
     .338400000000D+06 -.186264514923D-08  .285591056005D+01 -.111758708954D-06
     .970651333101D+00  .133093750000D+03  .931147146793D+00 -.771246411223D-08
    -.177507393895D-09  .100000000000D+01  .227700000000D+04  .000000000000D+00
     .240000000000D+01  .000000000000D+00 -.116415321827D-07  .680000000000D+02
     .331200000000D+06  .400000000000D+01
23 23  8 30 22  0  0.0  .618267804384D-04  .500222085975D-11  .000000000000D+00
     .920000000000D+02  .312500000000D+01  .474876923387D-08  .270742981852D+00
     .217929482460D-06  .357297854498D-02  .471249222755D-06  .515367123032D+04
     .338400000000D+06  .372529029846D-08  .164057526189D+01  .689178705215D-07
     .974849493983D+00  .378281250000D+03 -.310072379585D+01 -.863000233138D-08
     .120004998690D-09  .100000000000D+01  .227700000000D+04  .000000000000D+00
     .240000000000D+01  .000000000000D+00 -.838190317154D-08  .348000000000D+03
     .331200000000D+06  .400000000000D+01
